ORBCOMM FM16            
1 25417U 98046E   26062.84432722  .00001720  00000+0  58815-3 0  9993
2 25417  44.9947  18.9265 0002911 189.9465 170.1326 14.39814940441668
ORBCOMM FM15            
1 25418U 98046F   26060.94344064  .00000411  00000+0  17640-3 0  9991
2 25418  44.9980  33.9056 0002671 186.0202 174.0615 14.39427017441378
ORBCOMM FM14            
1 25419U 98046G   26062.06957453  .00001525  00000+0  52609-3 0  9990
2 25419  44.9966  25.9741 0001412 201.4331 158.6459 14.39870589441518
ORBCOMM FM13            
1 25420U 98046H   26062.00744504  .00001327  00000+0  47706-3 0  9999
2 25420  44.9982  36.9412 0003037 152.7795 207.3213 14.38426972440490
ORBCOMM FM21            
1 25475U 98053A   26062.56772200  .00001153  00000+0  42440-3 0  9999
2 25475  45.0072 120.5606 0000988 220.0748 140.0028 14.37999520434578
ORBCOMM FM22            
1 25476U 98053B   26062.47047171  .00001340  00000+0  47390-3 0  9999
2 25476  45.0063 113.6056 0001067 121.1908 238.9045 14.39221719434610
ORBCOMM FM23            
1 25477U 98053C   26062.59824957  .00001273  00000+0  46116-3 0  9998
2 25477  45.0073 122.1001 0000585 147.0558 213.0327 14.38259810434731
ORBCOMM FM24            
1 25478U 98053D   26062.63589302  .00001378  00000+0  48911-3 0  9997
2 25478  45.0070 118.1912 0000760 180.8116 179.2731 14.38905722434805
ORBCOMM FM25            
1 25479U 98053E   26062.54332309  .00001359  00000+0  48317-3 0  9990
2 25479  45.0061 116.9432 0002797 132.9374 227.1710 14.38869101435086
ORBCOMM FM26            
1 25480U 98053F   26062.31811414  .00001078  00000+0  40121-3 0  9999
2 25480  45.0061 116.4515 0005058 141.5637 218.5572 14.37804982434934
ORBCOMM FM27            
1 25481U 98053G   26062.59421583  .00001419  00000+0  50218-3 0  9991
2 25481  45.0047 116.8006 0001716 240.6685 119.3993 14.38912750435029
ORBCOMM FM28            
1 25482U 98053H   26062.32764241  .00001228  00000+0  43998-3 0  9999
2 25482  45.0058  55.2731 0003554 190.9293 169.1479 14.39008673435671
ORBCOMM FM30            
1 25980U 99065A   26062.69549245  .00001058  00000+0  39331-3 0  9998
2 25980  45.0316 300.7588 0005733 234.4557 125.5758 14.37967316371791
ORBCOMM FM31            
1 25981U 99065B   26062.68132350  .00001063  00000+0  39575-3 0  9999
2 25981  45.0228 294.2680 0003515 265.8200  94.2247 14.37890327371346
ORBCOMM FM32            
1 25982U 99065C   26062.06431784  .00001051  00000+0  39925-3 0  9991
2 25982  45.0162 315.4948 0005768 257.0431 102.9773 14.36950083371827
ORBCOMM FM33            
1 25983U 99065D   26062.70791125  .00001359  00000+0  46492-3 0  9999
2 25983  45.0274 204.4016 0008264 280.7785  79.2135 14.40770710373488
ORBCOMM FM36            
1 25984U 99065E   26062.65814394  .00001467  00000+0  51698-3 0  9992
2 25984  45.0393 300.4817 0002254 154.7007 205.3953 14.38964421371789
